[{"OBJECT_NAME":"ANDESITE","OBJECT_ID":"2020-037D","EPOCH":"2026-03-09T11:12:46.886112","MEAN_MOTION":15.05115692,"ECCENTRICITY":0.00099538,"INCLINATION":97.789,"RA_OF_ASC_NODE":260.5174,"ARG_OF_PERICENTER":141.6473,"MEAN_ANOMALY":218.5462,"EPHEMERIS_TYPE":0,"CLASSIFICATION_TYPE":"U","NORAD_CAT_ID":45726,"ELEMENT_SET_NO":999,"REV_AT_EPOCH":31066,"BSTAR":0.00031876291,"MEAN_MOTION_DOT":4.478e-5,"MEAN_MOTION_DDOT":0},{"OBJECT_NAME":"STARLINK-5973","OBJECT_ID":"2023-083AS","EPOCH":"2026-03-09T22:00:01.999584","MEAN_MOTION":15.06658129,"ECCENTRICITY":0.00010999,"INCLINATION":43.0007,"RA_OF_ASC_NODE":67.3137,"ARG_OF_PERICENTER":323.5297,"MEAN_ANOMALY":164.4858,"EPHEMERIS_TYPE":0,"CLASSIFICATION_TYPE":"U","NORAD_CAT_ID":56916,"ELEMENT_SET_NO":999,"REV_AT_EPOCH":557,"BSTAR":0.0043231422,"MEAN_MOTION_DOT":0.00065619,"MEAN_MOTION_DDOT":0}]
